{
 "type": "FeatureCollection",
 "features": [
  {
   "type": "Feature",
   "id": "kerala-coast-p01",
   "geometry": {
    "type": "Polygon",
    "coordinates": [
     [
      [
       76.46272,
       9.89148
      ],
      [
       76.45843,
       9.89675
      ],
      [
       76.45488,
       9.90508
      ],
      [
       76.44463,
       9.9031
      ],
      [
       76.43371,
       9.90057
      ],
      [
       76.43334,
       9.89148
      ],
      [
       76.44134,
       9.88682
      ],
      [
       76.4459,
       9.88297
      ],
      [
       76.45284,
       9.88289
      ],
      [
       76.46068,
       9.88489
      ],
      [
       76.46272,
       9.89148
      ]
     ]
    ]
   },
   "properties": {
    "id": "kerala-coast-p01",
    "area_ha": 531.7,
    "quality": 0.713,
    "confidence": 0.908,
    "habitat_class": "mangrove",
    "name": "Kumarakom North Fringe",
    "protected": false,
    "perimeter_km": null,
    "bbox": null,
    "extra": {},
    "centroid_lat": 9.89148,
    "centroid_lon": 76.44935,
    "criticality_rank": 10,
    "criticality_score": 0.13270664703047336,
    "delta_connectivity": 0.0007133747468204372,
    "delta_pct": 13.270664703047338,
    "degree": 1,
    "is_cut_vertex": false,
    "component_count_after": 3,
    "rank_by_area": 7,
    "criticality_level": "high"
   }
  },
  {
   "type": "Feature",
   "id": "kerala-coast-p02",
   "geometry": {
    "type": "Polygon",
    "coordinates": [
     [
      [
       76.41888,
       9.88856
      ],
      [
       76.41665,
       9.89208
      ],
      [
       76.41233,
       9.89287
      ],
      [
       76.40855,
       9.89357
      ],
      [
       76.40463,
       9.89202
      ],
      [
       76.40271,
       9.88856
      ],
      [
       76.40283,
       9.88405
      ],
      [
       76.40822,
       9.88274
      ],
      [
       76.41355,
       9.88126
      ],
      [
       76.41762,
       9.88447
      ],
      [
       76.41888,
       9.88856
      ]
     ]
    ]
   },
   "properties": {
    "id": "kerala-coast-p02",
    "area_ha": 211.6,
    "quality": 0.824,
    "confidence": 0.846,
    "habitat_class": "mudflat",
    "name": "Pathiramanal Island",
    "protected": true,
    "perimeter_km": null,
    "bbox": null,
    "extra": {},
    "centroid_lat": 9.88856,
    "centroid_lon": 76.41058,
    "criticality_rank": 3,
    "criticality_score": 0.34588072970483136,
    "delta_connectivity": 0.0018593083579799344,
    "delta_pct": 34.58807297048314,
    "degree": 3,
    "is_cut_vertex": true,
    "component_count_after": 5,
    "rank_by_area": 12,
    "criticality_level": "critical"
   }
  },
  {
   "type": "Feature",
   "id": "kerala-coast-p03",
   "geometry": {
    "type": "Polygon",
    "coordinates": [
     [
      [
       76.39668,
       9.88967
      ],
      [
       76.39348,
       9.89401
      ],
      [
       76.38846,
       9.89625
      ],
      [
       76.38259,
       9.89578
      ],
      [
       76.37888,
       9.89203
      ],
      [
       76.38194,
       9.88819
      ],
      [
       76.38392,
       9.8854
      ],
      [
       76.38817,
       9.88437
      ],
      [
       76.3949,
       9.88437
      ],
      [
       76.39668,
       9.88967
      ]
     ]
    ]
   },
   "properties": {
    "id": "kerala-coast-p03",
    "area_ha": 159.6,
    "quality": 0.474,
    "confidence": 0.857,
    "habitat_class": "estuary",
    "name": "Vembanad Core Belt",
    "protected": false,
    "perimeter_km": null,
    "bbox": null,
    "extra": {},
    "centroid_lat": 9.88967,
    "centroid_lon": 76.38701,
    "criticality_rank": 4,
    "criticality_score": 0.2568401635919355,
    "delta_connectivity": 0.0013806639740784289,
    "delta_pct": 25.684016359193553,
    "degree": 3,
    "is_cut_vertex": true,
    "component_count_after": 4,
    "rank_by_area": 14,
    "criticality_level": "critical"
   }
  },
  {
   "type": "Feature",
   "id": "kerala-coast-p04",
   "geometry": {
    "type": "Polygon",
    "coordinates": [
     [
      [
       76.42271,
       9.93989
      ],
      [
       76.41936,
       9.94363
      ],
      [
       76.41574,
       9.94609
      ],
      [
       76.41126,
       9.94655
      ],
      [
       76.40755,
       9.94503
      ],
      [
       76.40669,
       9.942
      ],
      [
       76.40365,
       9.93989
      ],
      [
       76.40322,
       9.93617
      ],
      [
       76.40576,
       9.93226
      ],
      [
       76.41126,
       9.93399
      ],
      [
       76.41584,
       9.93354
      ],
      [
       76.41679,
       9.93733
      ],
      [
       76.42271,
       9.93989
      ]
     ]
    ]
   },
   "properties": {
    "id": "kerala-coast-p04",
    "area_ha": 172.3,
    "quality": 0.895,
    "confidence": 0.926,
    "habitat_class": "saltmarsh",
    "name": "Aroor Backwater Fringe",
    "protected": true,
    "perimeter_km": null,
    "bbox": null,
    "extra": {},
    "centroid_lat": 9.93989,
    "centroid_lon": 76.41126,
    "criticality_rank": 15,
    "criticality_score": 0.036503703408731734,
    "delta_connectivity": 0.00019622845396156073,
    "delta_pct": 3.6503703408731734,
    "degree": 1,
    "is_cut_vertex": false,
    "component_count_after": 3,
    "rank_by_area": 13,
    "criticality_level": "medium"
   }
  },
  {
   "type": "Feature",
   "id": "kerala-coast-p05",
   "geometry": {
    "type": "Polygon",
    "coordinates": [
     [
      [
       76.38724,
       9.89475
      ],
      [
       76.3777,
       9.90021
      ],
      [
       76.37435,
       9.90965
      ],
      [
       76.3649,
       9.90311
      ],
      [
       76.35872,
       9.90031
      ],
      [
       76.35268,
       9.89475
      ],
      [
       76.35284,
       9.88576
      ],
      [
       76.36274,
       9.88105
      ],
      [
       76.37378,
       9.88124
      ],
      [
       76.37829,
       9.88893
      ],
      [
       76.38724,
       9.89475
      ]
     ]
    ]
   },
   "properties": {
    "id": "kerala-coast-p05",
    "area_ha": 657.2,
    "quality": 0.711,
    "confidence": 0.933,
    "habitat_class": "estuary",
    "name": "Kadamakkudy Cluster",
    "protected": true,
    "perimeter_km": null,
    "bbox": null,
    "extra": {},
    "centroid_lat": 9.89475,
    "centroid_lon": 76.3683,
    "criticality_rank": 5,
    "criticality_score": 0.24810148932227322,
    "delta_connectivity": 0.0013336885611344553,
    "delta_pct": 24.81014893222732,
    "degree": 3,
    "is_cut_vertex": true,
    "component_count_after": 4,
    "rank_by_area": 3,
    "criticality_level": "high"
   }
  },
  {
   "type": "Feature",
   "id": "kerala-coast-p06",
   "geometry": {
    "type": "Polygon",
    "coordinates": [
     [
      [
       76.38508,
       9.92693
      ],
      [
       76.3842,
       9.92983
      ],
      [
       76.38315,
       9.93417
      ],
      [
       76.37793,
       9.93482
      ],
      [
       76.37434,
       9.93191
      ],
      [
       76.37322,
       9.92911
      ],
      [
       76.36989,
       9.92693
      ],
      [
       76.37309,
       9.92469
      ],
      [
       76.37458,
       9.92229
      ],
      [
       76.37793,
       9.91958
      ],
      [
       76.38239,
       9.92075
      ],
      [
       76.38481,
       9.92376
      ],
      [
       76.38508,
       9.92693
      ]
     ]
    ]
   },
   "properties": {
    "id": "kerala-coast-p06",
    "area_ha": 146.6,
    "quality": 0.523,
    "confidence": 0.89,
    "habitat_class": "mudflat",
    "name": "Panangad Channel Bank",
    "protected": false,
    "perimeter_km": null,
    "bbox": null,
    "extra": {},
    "centroid_lat": 9.92693,
    "centroid_lon": 76.37793,
    "criticality_rank": 11,
    "criticality_score": 0.12529722791898806,
    "delta_connectivity": 0.0006735448468039853,
    "delta_pct": 12.529722791898807,
    "degree": 4,
    "is_cut_vertex": true,
    "component_count_after": 5,
    "rank_by_area": 16,
    "criticality_level": "high"
   }
  },
  {
   "type": "Feature",
   "id": "kerala-coast-p07",
   "geometry": {
    "type": "Polygon",
    "coordinates": [
     [
      [
       76.37165,
       9.94958
      ],
      [
       76.36538,
       9.95384
      ],
      [
       76.36225,
       9.95993
      ],
      [
       76.35381,
       9.96001
      ],
      [
       76.35106,
       9.95364
      ],
      [
       76.3503,
       9.94958
      ],
      [
       76.34748,
       9.94344
      ],
      [
       76.35393,
       9.93946
      ],
      [
       76.36189,
       9.9401
      ],
      [
       76.36763,
       9.94401
      ],
      [
       76.37165,
       9.94958
      ]
     ]
    ]
   },
   "properties": {
    "id": "kerala-coast-p07",
    "area_ha": 314.4,
    "quality": 0.883,
    "confidence": 0.829,
    "habitat_class": "seagrass",
    "name": "Puthenvelikkara Mangroves",
    "protected": true,
    "perimeter_km": null,
    "bbox": null,
    "extra": {},
    "centroid_lat": 9.94958,
    "centroid_lon": 76.35804,
    "criticality_rank": 13,
    "criticality_score": 0.06778208661461335,
    "delta_connectivity": 0.00036436779889825136,
    "delta_pct": 6.778208661461335,
    "degree": 1,
    "is_cut_vertex": false,
    "component_count_after": 3,
    "rank_by_area": 10,
    "criticality_level": "medium"
   }
  },
  {
   "type": "Feature",
   "id": "kerala-coast-p08",
   "geometry": {
    "type": "Polygon",
    "coordinates": [
     [
      [
       76.28009,
       9.9102
      ],
      [
       76.27667,
       9.91213
      ],
      [
       76.27593,
       9.91657
      ],
      [
       76.27181,
       9.91398
      ],
      [
       76.26831,
       9.91312
      ],
      [
       76.26756,
       9.9102
      ],
      [
       76.26739,
       9.90674
      ],
      [
       76.27202,
       9.90694
      ],
      [
       76.27501,
       9.90611
      ],
      [
       76.27736,
       9.90787
      ],
      [
       76.28009,
       9.9102
      ]
     ]
    ]
   },
   "properties": {
    "id": "kerala-coast-p08",
    "area_ha": 58.5,
    "quality": 0.675,
    "confidence": 0.821,
    "habitat_class": "mangrove",
    "name": "Cherai Sand Spit",
    "protected": true,
    "perimeter_km": null,
    "bbox": null,
    "extra": {},
    "centroid_lat": 9.9102,
    "centroid_lon": 76.27335,
    "criticality_rank": 18,
    "criticality_score": 0.0002695343613075024,
    "delta_connectivity": 1.448902606310254e-06,
    "delta_pct": 0.02695343613075024,
    "degree": 0,
    "is_cut_vertex": false,
    "component_count_after": 2,
    "rank_by_area": 18,
    "criticality_level": "low"
   }
  },
  {
   "type": "Feature",
   "id": "kerala-coast-p09",
   "geometry": {
    "type": "Polygon",
    "coordinates": [
     [
      [
       76.35036,
       9.88966
      ],
      [
       76.35079,
       9.89722
      ],
      [
       76.34125,
       9.89871
      ],
      [
       76.33433,
       9.89948
      ],
      [
       76.32498,
       9.89992
      ],
      [
       76.31787,
       9.89394
      ],
      [
       76.32122,
       9.88617
      ],
      [
       76.32521,
       9.87962
      ],
      [
       76.33363,
       9.87595
      ],
      [
       76.34068,
       9.88162
      ],
      [
       76.34627,
       9.88443
      ],
      [
       76.35036,
       9.88966
      ]
     ]
    ]
   },
   "properties": {
    "id": "kerala-coast-p09",
    "area_ha": 492.2,
    "quality": 0.894,
    "confidence": 0.85,
    "habitat_class": "estuary",
    "name": "Munambam Estuary Mouth",
    "protected": false,
    "perimeter_km": null,
    "bbox": null,
    "extra": {},
    "centroid_lat": 9.88966,
    "centroid_lon": 76.33609,
    "criticality_rank": 12,
    "criticality_score": 0.11504521947173456,
    "delta_connectivity": 0.0006184343900626508,
    "delta_pct": 11.504521947173457,
    "degree": 1,
    "is_cut_vertex": false,
    "component_count_after": 3,
    "rank_by_area": 8,
    "criticality_level": "high"
   }
  },
  {
   "type": "Feature",
   "id": "kerala-coast-p10",
   "geometry": {
    "type": "Polygon",
    "coordinates": [
     [
      [
       76.30955,
       9.86156
      ],
      [
       76.30429,
       9.87055
      ],
      [
       76.29342,
       9.87298
      ],
      [
       76.28311,
       9.87236
      ],
      [
       76.2725,
       9.86692
      ],
      [
       76.28126,
       9.85875
      ],
      [
       76.28536,
       9.85388
      ],
      [
       76.29444,
       9.84551
      ],
      [
       76.30748,
       9.85043
      ],
      [
       76.30955,
       9.86156
      ]
     ]
    ]
   },
   "properties": {
    "id": "kerala-coast-p10",
    "area_ha": 599.5,
    "quality": 0.771,
    "confidence": 0.97,
    "habitat_class": "seagrass",
    "name": "Vypin Fringe Forest",
    "protected": true,
    "perimeter_km": null,
    "bbox": null,
    "extra": {},
    "centroid_lat": 9.86156,
    "centroid_lon": 76.2909,
    "criticality_rank": 16,
    "criticality_score": 0.034680343789613925,
    "delta_connectivity": 0.00018642684465443923,
    "delta_pct": 3.4680343789613928,
    "degree": 1,
    "is_cut_vertex": false,
    "component_count_after": 3,
    "rank_by_area": 5,
    "criticality_level": "medium"
   }
  },
  {
   "type": "Feature",
   "id": "kerala-coast-p11",
   "geometry": {
    "type": "Polygon",
    "coordinates": [
     [
      [
       76.27233,
       9.84646
      ],
      [
       76.2689,
       9.84903
      ],
      [
       76.2668,
       9.85127
      ],
      [
       76.26332,
       9.85074
      ],
      [
       76.26061,
       9.85022
      ],
      [
       76.25907,
       9.84842
      ],
      [
       76.25518,
       9.84646
      ],
      [
       76.25599,
       9.84307
      ],
      [
       76.25964,
       9.84136
      ],
      [
       76.26332,
       9.84122
      ],
      [
       76.26656,
       9.84197
      ],
      [
       76.26886,
       9.8439
      ],
      [
       76.27233,
       9.84646
      ]
     ]
    ]
   },
   "properties": {
    "id": "kerala-coast-p11",
    "area_ha": 135,
    "quality": 0.672,
    "confidence": 0.908,
    "habitat_class": "urban",
    "name": "Kannamali Seagrass Bed",
    "protected": false,
    "perimeter_km": null,
    "bbox": null,
    "extra": {},
    "centroid_lat": 9.84646,
    "centroid_lon": 76.26332,
    "criticality_rank": 17,
    "criticality_score": 0.007809585340446794,
    "delta_connectivity": 4.198102423411034e-05,
    "delta_pct": 0.7809585340446794,
    "degree": 1,
    "is_cut_vertex": false,
    "component_count_after": 3,
    "rank_by_area": 17,
    "criticality_level": "low"
   }
  },
  {
   "type": "Feature",
   "id": "kerala-coast-p12",
   "geometry": {
    "type": "Polygon",
    "coordinates": [
     [
      [
       76.3393,
       9.82943
      ],
      [
       76.33886,
       9.83983
      ],
      [
       76.32603,
       9.84148
      ],
      [
       76.317,
       9.83827
      ],
      [
       76.30741,
       9.83408
      ],
      [
       76.30856,
       9.82512
      ],
      [
       76.31344,
       9.81566
      ],
      [
       76.32554,
       9.81961
      ],
      [
       76.33664,
       9.82053
      ],
      [
       76.3393,
       9.82943
      ]
     ]
    ]
   },
   "properties": {
    "id": "kerala-coast-p12",
    "area_ha": 610.1,
    "quality": 0.912,
    "confidence": 0.866,
    "habitat_class": "estuary",
    "name": "Chellanam Shoreline",
    "protected": true,
    "perimeter_km": null,
    "bbox": null,
    "extra": {},
    "centroid_lat": 9.82943,
    "centroid_lon": 76.32338,
    "criticality_rank": 8,
    "criticality_score": 0.15877538828498827,
    "delta_connectivity": 0.0008535092623741056,
    "delta_pct": 15.877538828498826,
    "degree": 2,
    "is_cut_vertex": false,
    "component_count_after": 3,
    "rank_by_area": 4,
    "criticality_level": "high"
   }
  },
  {
   "type": "Feature",
   "id": "kerala-coast-p13",
   "geometry": {
    "type": "Polygon",
    "coordinates": [
     [
      [
       76.36774,
       9.84943
      ],
      [
       76.36941,
       9.85416
      ],
      [
       76.3629,
       9.85344
      ],
      [
       76.35887,
       9.85533
      ],
      [
       76.35696,
       9.85193
      ],
      [
       76.35347,
       9.84943
      ],
      [
       76.35478,
       9.84565
      ],
      [
       76.35902,
       9.8439
      ],
      [
       76.36447,
       9.84154
      ],
      [
       76.36991,
       9.84441
      ],
      [
       76.36774,
       9.84943
      ]
     ]
    ]
   },
   "properties": {
    "id": "kerala-coast-p13",
    "area_ha": 157.6,
    "quality": 0.765,
    "confidence": 0.952,
    "habitat_class": "saltmarsh",
    "name": "Thanneermukkom Bund North",
    "protected": false,
    "perimeter_km": null,
    "bbox": null,
    "extra": {},
    "centroid_lat": 9.84943,
    "centroid_lon": 76.36127,
    "criticality_rank": 14,
    "criticality_score": 0.04706307086985004,
    "delta_connectivity": 0.00025299114262650364,
    "delta_pct": 4.706307086985004,
    "degree": 3,
    "is_cut_vertex": false,
    "component_count_after": 3,
    "rank_by_area": 15,
    "criticality_level": "medium"
   }
  },
  {
   "type": "Feature",
   "id": "kerala-coast-p14",
   "geometry": {
    "type": "Polygon",
    "coordinates": [
     [
      [
       76.36485,
       9.81595
      ],
      [
       76.35759,
       9.82228
      ],
      [
       76.35128,
       9.83013
      ],
      [
       76.33477,
       9.8345
      ],
      [
       76.33134,
       9.82085
      ],
      [
       76.33511,
       9.81215
      ],
      [
       76.33498,
       9.79769
      ],
      [
       76.35212,
       9.79797
      ],
      [
       76.36509,
       9.80459
      ],
      [
       76.36485,
       9.81595
      ]
     ]
    ]
   },
   "properties": {
    "id": "kerala-coast-p14",
    "area_ha": 820.6,
    "quality": 0.635,
    "confidence": 0.883,
    "habitat_class": "saltmarsh",
    "name": "Muhamma Marsh",
    "protected": false,
    "perimeter_km": null,
    "bbox": null,
    "extra": {},
    "centroid_lat": 9.81595,
    "centroid_lon": 76.34816,
    "criticality_rank": 6,
    "criticality_score": 0.24505048195303844,
    "delta_connectivity": 0.0013172876373052566,
    "delta_pct": 24.505048195303843,
    "degree": 3,
    "is_cut_vertex": false,
    "component_count_after": 3,
    "rank_by_area": 1,
    "criticality_level": "high"
   }
  },
  {
   "type": "Feature",
   "id": "kerala-coast-p15",
   "geometry": {
    "type": "Polygon",
    "coordinates": [
     [
      [
       76.38959,
       9.84939
      ],
      [
       76.38502,
       9.85657
      ],
      [
       76.37663,
       9.85912
      ],
      [
       76.36719,
       9.86289
      ],
      [
       76.35502,
       9.85965
      ],
      [
       76.36028,
       9.84939
      ],
      [
       76.36044,
       9.84228
      ],
      [
       76.36699,
       9.83539
      ],
      [
       76.37605,
       9.84108
      ],
      [
       76.38499,
       9.84224
      ],
      [
       76.38959,
       9.84939
      ]
     ]
    ]
   },
   "properties": {
    "id": "kerala-coast-p15",
    "area_ha": 684.3,
    "quality": 0.855,
    "confidence": 0.912,
    "habitat_class": "estuary",
    "name": "Perumbalam Island",
    "protected": true,
    "perimeter_km": null,
    "bbox": null,
    "extra": {},
    "centroid_lat": 9.84939,
    "centroid_lon": 76.37268,
    "criticality_rank": 2,
    "criticality_score": 0.39307302915420256,
    "delta_connectivity": 0.0021129941787349322,
    "delta_pct": 39.30730291542026,
    "degree": 3,
    "is_cut_vertex": true,
    "component_count_after": 4,
    "rank_by_area": 2,
    "criticality_level": "critical"
   }
  },
  {
   "type": "Feature",
   "id": "kerala-coast-p16",
   "geometry": {
    "type": "Polygon",
    "coordinates": [
     [
      [
       76.41854,
       9.84723
      ],
      [
       76.41885,
       9.85189
      ],
      [
       76.41375,
       9.85419
      ],
      [
       76.40797,
       9.85733
      ],
      [
       76.40572,
       9.85098
      ],
      [
       76.39984,
       9.84957
      ],
      [
       76.39901,
       9.8447
      ],
      [
       76.40532,
       9.84311
      ],
      [
       76.40792,
       9.83686
      ],
      [
       76.41535,
       9.83748
      ],
      [
       76.41727,
       9.84338
      ],
      [
       76.41854,
       9.84723
      ]
     ]
    ]
   },
   "properties": {
    "id": "kerala-coast-p16",
    "area_ha": 263,
    "quality": 0.507,
    "confidence": 0.872,
    "habitat_class": "estuary",
    "name": "Kothad Mangrove Patch",
    "protected": false,
    "perimeter_km": null,
    "bbox": null,
    "extra": {},
    "centroid_lat": 9.84723,
    "centroid_lon": 76.40978,
    "criticality_rank": 1,
    "criticality_score": 0.40784661163633096,
    "delta_connectivity": 0.00219241070306622,
    "delta_pct": 40.784661163633096,
    "degree": 3,
    "is_cut_vertex": true,
    "component_count_after": 5,
    "rank_by_area": 11,
    "criticality_level": "critical"
   }
  },
  {
   "type": "Feature",
   "id": "kerala-coast-p17",
   "geometry": {
    "type": "Polygon",
    "coordinates": [
     [
      [
       76.46124,
       9.83617
      ],
      [
       76.46423,
       9.84132
      ],
      [
       76.46089,
       9.84697
      ],
      [
       76.45309,
       9.84243
      ],
      [
       76.44688,
       9.84479
      ],
      [
       76.44396,
       9.84039
      ],
      [
       76.43942,
       9.83617
      ],
      [
       76.44081,
       9.8305
      ],
      [
       76.44821,
       9.82941
      ],
      [
       76.45309,
       9.82857
      ],
      [
       76.46003,
       9.82656
      ],
      [
       76.46529,
       9.83054
      ],
      [
       76.46124,
       9.83617
      ]
     ]
    ]
   },
   "properties": {
    "id": "kerala-coast-p17",
    "area_ha": 355.2,
    "quality": 0.589,
    "confidence": 0.888,
    "habitat_class": "seagrass",
    "name": "Valanthakad Wetland",
    "protected": true,
    "perimeter_km": null,
    "bbox": null,
    "extra": {},
    "centroid_lat": 9.83617,
    "centroid_lon": 76.45309,
    "criticality_rank": 7,
    "criticality_score": 0.1937586457297079,
    "delta_connectivity": 0.0010415644425856166,
    "delta_pct": 19.37586457297079,
    "degree": 2,
    "is_cut_vertex": true,
    "component_count_after": 4,
    "rank_by_area": 9,
    "criticality_level": "high"
   }
  },
  {
   "type": "Feature",
   "id": "kerala-coast-p18",
   "geometry": {
    "type": "Polygon",
    "coordinates": [
     [
      [
       76.50181,
       9.84851
      ],
      [
       76.49301,
       9.85295
      ],
      [
       76.4936,
       9.86265
      ],
      [
       76.48339,
       9.86245
      ],
      [
       76.47777,
       9.8563
      ],
      [
       76.47301,
       9.85331
      ],
      [
       76.46541,
       9.84851
      ],
      [
       76.47488,
       9.84458
      ],
      [
       76.4772,
       9.83994
      ],
      [
       76.48339,
       9.84045
      ],
      [
       76.49179,
       9.83688
      ],
      [
       76.49572,
       9.84281
      ],
      [
       76.50181,
       9.84851
      ]
     ]
    ]
   },
   "properties": {
    "id": "kerala-coast-p18",
    "area_ha": 590.3,
    "quality": 0.407,
    "confidence": 0.892,
    "habitat_class": "urban",
    "name": "Nettoor Channel Edge",
    "protected": true,
    "perimeter_km": null,
    "bbox": null,
    "extra": {},
    "centroid_lat": 9.84851,
    "centroid_lon": 76.48339,
    "criticality_rank": 9,
    "criticality_score": 0.13889708807672507,
    "delta_connectivity": 0.0007466519368700252,
    "delta_pct": 13.889708807672509,
    "degree": 1,
    "is_cut_vertex": false,
    "component_count_after": 3,
    "rank_by_area": 6,
    "criticality_level": "high"
   }
  }
 ]
}