{
 "type": "FeatureCollection",
 "features": [
  {
   "type": "Feature",
   "id": "odisha-coast-p01",
   "geometry": {
    "type": "Polygon",
    "coordinates": [
     [
      [
       87.02775,
       20.70638
      ],
      [
       87.02258,
       20.71441
      ],
      [
       87.01229,
       20.71506
      ],
      [
       87.00339,
       20.71963
      ],
      [
       86.99807,
       20.7126
      ],
      [
       86.98975,
       20.70638
      ],
      [
       86.99061,
       20.69582
      ],
      [
       87.00375,
       20.69403
      ],
      [
       87.0134,
       20.69499
      ],
      [
       87.02482,
       20.69705
      ],
      [
       87.02775,
       20.70638
      ]
     ]
    ]
   },
   "properties": {
    "id": "odisha-coast-p01",
    "area_ha": 665,
    "quality": 0.456,
    "confidence": 0.897,
    "habitat_class": "estuary",
    "name": "Bhitarkanika Core",
    "protected": true,
    "perimeter_km": null,
    "bbox": null,
    "extra": {},
    "centroid_lat": 20.70638,
    "centroid_lon": 87.00877,
    "criticality_rank": 12,
    "criticality_score": 0.05136025393452602,
    "delta_connectivity": 9.792751736111102e-05,
    "delta_pct": 5.136025393452601,
    "degree": 0,
    "is_cut_vertex": false,
    "component_count_after": 7,
    "rank_by_area": 5,
    "criticality_level": "medium"
   }
  },
  {
   "type": "Feature",
   "id": "odisha-coast-p02",
   "geometry": {
    "type": "Polygon",
    "coordinates": [
     [
      [
       86.95121,
       20.73872
      ],
      [
       86.94999,
       20.74594
      ],
      [
       86.94162,
       20.7487
      ],
      [
       86.93284,
       20.75035
      ],
      [
       86.92615,
       20.74536
      ],
      [
       86.92712,
       20.73872
      ],
      [
       86.92823,
       20.7333
      ],
      [
       86.93346,
       20.72861
      ],
      [
       86.94158,
       20.72885
      ],
      [
       86.94747,
       20.73297
      ],
      [
       86.95121,
       20.73872
      ]
     ]
    ]
   },
   "properties": {
    "id": "odisha-coast-p02",
    "area_ha": 345.2,
    "quality": 0.942,
    "confidence": 0.984,
    "habitat_class": "mudflat",
    "name": "Dangmal Block",
    "protected": true,
    "perimeter_km": null,
    "bbox": null,
    "extra": {},
    "centroid_lat": 20.73872,
    "centroid_lon": 86.93757,
    "criticality_rank": 6,
    "criticality_score": 0.08721685808302726,
    "delta_connectivity": 0.00016629455132747542,
    "delta_pct": 8.721685808302727,
    "degree": 2,
    "is_cut_vertex": false,
    "component_count_after": 8,
    "rank_by_area": 11,
    "criticality_level": "medium"
   }
  },
  {
   "type": "Feature",
   "id": "odisha-coast-p03",
   "geometry": {
    "type": "Polygon",
    "coordinates": [
     [
      [
       86.93046,
       20.73251
      ],
      [
       86.93331,
       20.73861
      ],
      [
       86.92711,
       20.74221
      ],
      [
       86.92011,
       20.73943
      ],
      [
       86.91325,
       20.74202
      ],
      [
       86.91076,
       20.73683
      ],
      [
       86.91217,
       20.73251
      ],
      [
       86.90937,
       20.72755
      ],
      [
       86.91481,
       20.72517
      ],
      [
       86.92011,
       20.72289
      ],
      [
       86.92566,
       20.72482
      ],
      [
       86.92779,
       20.72896
      ],
      [
       86.93046,
       20.73251
      ]
     ]
    ]
   },
   "properties": {
    "id": "odisha-coast-p03",
    "area_ha": 334.9,
    "quality": 0.493,
    "confidence": 0.824,
    "habitat_class": "estuary",
    "name": "Habalikhati Dune Belt",
    "protected": false,
    "perimeter_km": null,
    "bbox": null,
    "extra": {},
    "centroid_lat": 20.73251,
    "centroid_lon": 86.92011,
    "criticality_rank": 7,
    "criticality_score": 0.08461450107765286,
    "delta_connectivity": 0.00016133269188751856,
    "delta_pct": 8.461450107765287,
    "degree": 2,
    "is_cut_vertex": false,
    "component_count_after": 8,
    "rank_by_area": 12,
    "criticality_level": "medium"
   }
  },
  {
   "type": "Feature",
   "id": "odisha-coast-p04",
   "geometry": {
    "type": "Polygon",
    "coordinates": [
     [
      [
       86.92409,
       20.74587
      ],
      [
       86.91842,
       20.75357
      ],
      [
       86.90982,
       20.7589
      ],
      [
       86.90025,
       20.75516
      ],
      [
       86.88818,
       20.75134
      ],
      [
       86.88772,
       20.74027
      ],
      [
       86.89658,
       20.73152
      ],
      [
       86.90945,
       20.7345
      ],
      [
       86.91542,
       20.74019
      ],
      [
       86.92409,
       20.74587
      ]
     ]
    ]
   },
   "properties": {
    "id": "odisha-coast-p04",
    "area_ha": 566.1,
    "quality": 0.844,
    "confidence": 0.956,
    "habitat_class": "saltmarsh",
    "name": "Ekakula Sand Ridge",
    "protected": false,
    "perimeter_km": null,
    "bbox": null,
    "extra": {},
    "centroid_lat": 20.74587,
    "centroid_lon": 86.90695,
    "criticality_rank": 2,
    "criticality_score": 0.24256498077803074,
    "delta_connectivity": 0.0004624935538017289,
    "delta_pct": 24.256498077803073,
    "degree": 3,
    "is_cut_vertex": true,
    "component_count_after": 9,
    "rank_by_area": 7,
    "criticality_level": "high"
   }
  },
  {
   "type": "Feature",
   "id": "odisha-coast-p05",
   "geometry": {
    "type": "Polygon",
    "coordinates": [
     [
      [
       86.93945,
       20.79021
      ],
      [
       86.93666,
       20.79804
      ],
      [
       86.92591,
       20.79879
      ],
      [
       86.91972,
       20.80707
      ],
      [
       86.91076,
       20.80262
      ],
      [
       86.89732,
       20.80056
      ],
      [
       86.89969,
       20.79021
      ],
      [
       86.9082,
       20.7849
      ],
      [
       86.90753,
       20.77332
      ],
      [
       86.91972,
       20.77627
      ],
      [
       86.9308,
       20.77486
      ],
      [
       86.93895,
       20.78133
      ],
      [
       86.93945,
       20.79021
      ]
     ]
    ]
   },
   "properties": {
    "id": "odisha-coast-p05",
    "area_ha": 788.5,
    "quality": 0.424,
    "confidence": 0.883,
    "habitat_class": "mangrove",
    "name": "Gahirmatha Rookery Flat",
    "protected": true,
    "perimeter_km": null,
    "bbox": null,
    "extra": {},
    "centroid_lat": 20.79021,
    "centroid_lon": 86.91972,
    "criticality_rank": 10,
    "criticality_score": 0.07220832435815308,
    "delta_connectivity": 0.00013767809532667236,
    "delta_pct": 7.220832435815308,
    "degree": 0,
    "is_cut_vertex": false,
    "component_count_after": 7,
    "rank_by_area": 4,
    "criticality_level": "medium"
   }
  },
  {
   "type": "Feature",
   "id": "odisha-coast-p06",
   "geometry": {
    "type": "Polygon",
    "coordinates": [
     [
      [
       86.87776,
       20.7756
      ],
      [
       86.8752,
       20.78181
      ],
      [
       86.86982,
       20.78676
      ],
      [
       86.86176,
       20.79547
      ],
      [
       86.85234,
       20.78865
      ],
      [
       86.8475,
       20.78219
      ],
      [
       86.83826,
       20.7756
      ],
      [
       86.83931,
       20.76523
      ],
      [
       86.84933,
       20.75836
      ],
      [
       86.86176,
       20.75865
      ],
      [
       86.87077,
       20.76312
      ],
      [
       86.87895,
       20.76766
      ],
      [
       86.87776,
       20.7756
      ]
     ]
    ]
   },
   "properties": {
    "id": "odisha-coast-p06",
    "area_ha": 804.6,
    "quality": 0.529,
    "confidence": 0.932,
    "habitat_class": "mangrove",
    "name": "Kalibhanjadia Island",
    "protected": true,
    "perimeter_km": null,
    "bbox": null,
    "extra": {},
    "centroid_lat": 20.7756,
    "centroid_lon": 86.86176,
    "criticality_rank": 3,
    "criticality_score": 0.21609078694575362,
    "delta_connectivity": 0.00041201576450892834,
    "delta_pct": 21.609078694575363,
    "degree": 1,
    "is_cut_vertex": false,
    "component_count_after": 8,
    "rank_by_area": 2,
    "criticality_level": "high"
   }
  },
  {
   "type": "Feature",
   "id": "odisha-coast-p07",
   "geometry": {
    "type": "Polygon",
    "coordinates": [
     [
      [
       86.8818,
       20.74788
      ],
      [
       86.8794,
       20.75339
      ],
      [
       86.87603,
       20.76292
      ],
      [
       86.86255,
       20.76605
      ],
      [
       86.84879,
       20.76017
      ],
      [
       86.85561,
       20.74788
      ],
      [
       86.85256,
       20.73779
      ],
      [
       86.86251,
       20.72961
      ],
      [
       86.87598,
       20.73299
      ],
      [
       86.88625,
       20.7384
      ],
      [
       86.8818,
       20.74788
      ]
     ]
    ]
   },
   "properties": {
    "id": "odisha-coast-p07",
    "area_ha": 790.4,
    "quality": 0.413,
    "confidence": 0.893,
    "habitat_class": "estuary",
    "name": "Baunsagada Creek",
    "protected": true,
    "perimeter_km": null,
    "bbox": null,
    "extra": {},
    "centroid_lat": 20.74788,
    "centroid_lon": 86.86993,
    "criticality_rank": 1,
    "criticality_score": 0.30704786002015777,
    "delta_connectivity": 0.0005854417051977037,
    "delta_pct": 30.704786002015773,
    "degree": 2,
    "is_cut_vertex": true,
    "component_count_after": 9,
    "rank_by_area": 3,
    "criticality_level": "critical"
   }
  },
  {
   "type": "Feature",
   "id": "odisha-coast-p08",
   "geometry": {
    "type": "Polygon",
    "coordinates": [
     [
      [
       86.77585,
       20.72285
      ],
      [
       86.76838,
       20.72916
      ],
      [
       86.7624,
       20.73481
      ],
      [
       86.74996,
       20.74151
      ],
      [
       86.74461,
       20.73037
      ],
      [
       86.73843,
       20.72285
      ],
      [
       86.73932,
       20.71226
      ],
      [
       86.74998,
       20.70425
      ],
      [
       86.76244,
       20.71079
      ],
      [
       86.77852,
       20.71066
      ],
      [
       86.77585,
       20.72285
      ]
     ]
    ]
   },
   "properties": {
    "id": "odisha-coast-p08",
    "area_ha": 943.5,
    "quality": 0.592,
    "confidence": 0.825,
    "habitat_class": "estuary",
    "name": "Thakurdia Mangroves",
    "protected": true,
    "perimeter_km": null,
    "bbox": null,
    "extra": {},
    "centroid_lat": 20.72285,
    "centroid_lon": 86.75754,
    "criticality_rank": 5,
    "criticality_score": 0.10338741593204158,
    "delta_connectivity": 0.00019712661431760194,
    "delta_pct": 10.338741593204157,
    "degree": 0,
    "is_cut_vertex": false,
    "component_count_after": 7,
    "rank_by_area": 1,
    "criticality_level": "high"
   }
  },
  {
   "type": "Feature",
   "id": "odisha-coast-p09",
   "geometry": {
    "type": "Polygon",
    "coordinates": [
     [
      [
       86.82963,
       20.72166
      ],
      [
       86.82942,
       20.72365
      ],
      [
       86.82838,
       20.7266
      ],
      [
       86.8249,
       20.72531
      ],
      [
       86.82074,
       20.72611
      ],
      [
       86.82052,
       20.72285
      ],
      [
       86.81812,
       20.71992
      ],
      [
       86.82175,
       20.71814
      ],
      [
       86.82462,
       20.71644
      ],
      [
       86.82786,
       20.71762
      ],
      [
       86.82936,
       20.71971
      ],
      [
       86.82963,
       20.72166
      ]
     ]
    ]
   },
   "properties": {
    "id": "odisha-coast-p09",
    "area_ha": 55.1,
    "quality": 0.676,
    "confidence": 0.857,
    "habitat_class": "saltmarsh",
    "name": "Kanika Sands",
    "protected": false,
    "perimeter_km": null,
    "bbox": null,
    "extra": {},
    "centroid_lat": 20.72166,
    "centroid_lon": 86.82556,
    "criticality_rank": 16,
    "criticality_score": 0.00035260386578744884,
    "delta_connectivity": 6.723023844958705e-07,
    "delta_pct": 0.03526038657874488,
    "degree": 0,
    "is_cut_vertex": false,
    "component_count_after": 7,
    "rank_by_area": 16,
    "criticality_level": "low"
   }
  },
  {
   "type": "Feature",
   "id": "odisha-coast-p10",
   "geometry": {
    "type": "Polygon",
    "coordinates": [
     [
      [
       86.85593,
       20.66745
      ],
      [
       86.85171,
       20.67403
      ],
      [
       86.8418,
       20.67348
      ],
      [
       86.83745,
       20.67765
      ],
      [
       86.82857,
       20.67975
      ],
      [
       86.82872,
       20.67148
      ],
      [
       86.8243,
       20.66745
      ],
      [
       86.82774,
       20.66296
      ],
      [
       86.8319,
       20.65976
      ],
      [
       86.83745,
       20.65776
      ],
      [
       86.8416,
       20.6617
      ],
      [
       86.84535,
       20.6638
      ],
      [
       86.85593,
       20.66745
      ]
     ]
    ]
   },
   "properties": {
    "id": "odisha-coast-p10",
    "area_ha": 464.6,
    "quality": 0.588,
    "confidence": 0.882,
    "habitat_class": "urban",
    "name": "Suajore Creek Bank",
    "protected": false,
    "perimeter_km": null,
    "bbox": null,
    "extra": {},
    "centroid_lat": 20.66745,
    "centroid_lon": 86.83745,
    "criticality_rank": 9,
    "criticality_score": 0.07449385691642876,
    "delta_connectivity": 0.00014203587224820486,
    "delta_pct": 7.449385691642877,
    "degree": 1,
    "is_cut_vertex": false,
    "component_count_after": 8,
    "rank_by_area": 8,
    "criticality_level": "medium"
   }
  },
  {
   "type": "Feature",
   "id": "odisha-coast-p11",
   "geometry": {
    "type": "Polygon",
    "coordinates": [
     [
      [
       86.8547,
       20.66519
      ],
      [
       86.85063,
       20.66951
      ],
      [
       86.84578,
       20.67143
      ],
      [
       86.83967,
       20.67937
      ],
      [
       86.83204,
       20.67458
      ],
      [
       86.83075,
       20.66788
      ],
      [
       86.83181,
       20.66274
      ],
      [
       86.83625,
       20.65968
      ],
      [
       86.83981,
       20.6518
      ],
      [
       86.84583,
       20.65887
      ],
      [
       86.85551,
       20.65835
      ],
      [
       86.8547,
       20.66519
      ]
     ]
    ]
   },
   "properties": {
    "id": "odisha-coast-p11",
    "area_ha": 446.1,
    "quality": 0.862,
    "confidence": 0.944,
    "habitat_class": "mudflat",
    "name": "Barunei Muhan",
    "protected": true,
    "perimeter_km": null,
    "bbox": null,
    "extra": {},
    "centroid_lat": 20.66519,
    "centroid_lon": 86.84222,
    "criticality_rank": 4,
    "criticality_score": 0.10905302519140903,
    "delta_connectivity": 0.00020792911248700857,
    "delta_pct": 10.905302519140902,
    "degree": 3,
    "is_cut_vertex": true,
    "component_count_after": 9,
    "rank_by_area": 9,
    "criticality_level": "high"
   }
  },
  {
   "type": "Feature",
   "id": "odisha-coast-p12",
   "geometry": {
    "type": "Polygon",
    "coordinates": [
     [
      [
       86.88663,
       20.6344
      ],
      [
       86.88375,
       20.64063
      ],
      [
       86.87625,
       20.64246
      ],
      [
       86.87112,
       20.63905
      ],
      [
       86.86561,
       20.63698
      ],
      [
       86.86674,
       20.63214
      ],
      [
       86.87077,
       20.62926
      ],
      [
       86.876,
       20.62747
      ],
      [
       86.88002,
       20.63068
      ],
      [
       86.88663,
       20.6344
      ]
     ]
    ]
   },
   "properties": {
    "id": "odisha-coast-p12",
    "area_ha": 263.5,
    "quality": 0.538,
    "confidence": 0.913,
    "habitat_class": "saltmarsh",
    "name": "Mahinsamunda Marsh",
    "protected": true,
    "perimeter_km": null,
    "bbox": null,
    "extra": {},
    "centroid_lat": 20.6344,
    "centroid_lon": 86.87448,
    "criticality_rank": 13,
    "criticality_score": 0.04469981222574244,
    "delta_connectivity": 8.522819305673652e-05,
    "delta_pct": 4.469981222574243,
    "degree": 2,
    "is_cut_vertex": false,
    "component_count_after": 8,
    "rank_by_area": 15,
    "criticality_level": "medium"
   }
  },
  {
   "type": "Feature",
   "id": "odisha-coast-p13",
   "geometry": {
    "type": "Polygon",
    "coordinates": [
     [
      [
       86.89397,
       20.64597
      ],
      [
       86.88743,
       20.6502
      ],
      [
       86.88343,
       20.65406
      ],
      [
       86.87742,
       20.65267
      ],
      [
       86.87219,
       20.65059
      ],
      [
       86.87046,
       20.64597
      ],
      [
       86.86717,
       20.63842
      ],
      [
       86.87594,
       20.63562
      ],
      [
       86.88564,
       20.63245
      ],
      [
       86.89403,
       20.63789
      ],
      [
       86.89397,
       20.64597
      ]
     ]
    ]
   },
   "properties": {
    "id": "odisha-coast-p13",
    "area_ha": 441.3,
    "quality": 0.92,
    "confidence": 0.91,
    "habitat_class": "mudflat",
    "name": "Rajnagar Buffer",
    "protected": false,
    "perimeter_km": null,
    "bbox": null,
    "extra": {},
    "centroid_lat": 20.64597,
    "centroid_lon": 86.88015,
    "criticality_rank": 8,
    "criticality_score": 0.0748615830558641,
    "delta_connectivity": 0.00014273700795422364,
    "delta_pct": 7.48615830558641,
    "degree": 2,
    "is_cut_vertex": false,
    "component_count_after": 8,
    "rank_by_area": 10,
    "criticality_level": "medium"
   }
  },
  {
   "type": "Feature",
   "id": "odisha-coast-p14",
   "geometry": {
    "type": "Polygon",
    "coordinates": [
     [
      [
       86.92857,
       20.61457
      ],
      [
       86.92487,
       20.61842
      ],
      [
       86.92123,
       20.6241
      ],
      [
       86.9143,
       20.62126
      ],
      [
       86.9124,
       20.61652
      ],
      [
       86.9085,
       20.61147
      ],
      [
       86.91482,
       20.60859
      ],
      [
       86.92048,
       20.60842
      ],
      [
       86.92603,
       20.60993
      ],
      [
       86.92857,
       20.61457
      ]
     ]
    ]
   },
   "properties": {
    "id": "odisha-coast-p14",
    "area_ha": 277.8,
    "quality": 0.779,
    "confidence": 0.843,
    "habitat_class": "dune",
    "name": "Jambu Estuary Mouth",
    "protected": false,
    "perimeter_km": null,
    "bbox": null,
    "extra": {},
    "centroid_lat": 20.61457,
    "centroid_lon": 86.91913,
    "criticality_rank": 14,
    "criticality_score": 0.029618209062093833,
    "delta_connectivity": 5.647241709183688e-05,
    "delta_pct": 2.9618209062093834,
    "degree": 1,
    "is_cut_vertex": false,
    "component_count_after": 8,
    "rank_by_area": 14,
    "criticality_level": "low"
   }
  },
  {
   "type": "Feature",
   "id": "odisha-coast-p15",
   "geometry": {
    "type": "Polygon",
    "coordinates": [
     [
      [
       86.96229,
       20.63928
      ],
      [
       86.96216,
       20.64487
      ],
      [
       86.95577,
       20.64714
      ],
      [
       86.9483,
       20.65585
      ],
      [
       86.94462,
       20.64542
      ],
      [
       86.9314,
       20.64394
      ],
      [
       86.93069,
       20.63444
      ],
      [
       86.94348,
       20.63208
      ],
      [
       86.94853,
       20.62398
      ],
      [
       86.95909,
       20.62559
      ],
      [
       86.96977,
       20.62977
      ],
      [
       86.96229,
       20.63928
      ]
     ]
    ]
   },
   "properties": {
    "id": "odisha-coast-p15",
    "area_ha": 640.2,
    "quality": 0.507,
    "confidence": 0.837,
    "habitat_class": "mangrove",
    "name": "Praharajpur Fringe",
    "protected": false,
    "perimeter_km": null,
    "bbox": null,
    "extra": {},
    "centroid_lat": 20.63928,
    "centroid_lon": 86.95128,
    "criticality_rank": 11,
    "criticality_score": 0.06825621829212541,
    "delta_connectivity": 0.00013014269770408177,
    "delta_pct": 6.825621829212542,
    "degree": 1,
    "is_cut_vertex": false,
    "component_count_after": 8,
    "rank_by_area": 6,
    "criticality_level": "medium"
   }
  },
  {
   "type": "Feature",
   "id": "odisha-coast-p16",
   "geometry": {
    "type": "Polygon",
    "coordinates": [
     [
      [
       86.95534,
       20.6868
      ],
      [
       86.9547,
       20.69186
      ],
      [
       86.94784,
       20.69247
      ],
      [
       86.94375,
       20.69286
      ],
      [
       86.9376,
       20.69531
      ],
      [
       86.93712,
       20.68986
      ],
      [
       86.93191,
       20.6868
      ],
      [
       86.93045,
       20.68065
      ],
      [
       86.93605,
       20.67614
      ],
      [
       86.94375,
       20.67458
      ],
      [
       86.94886,
       20.67971
      ],
      [
       86.95617,
       20.68106
      ],
      [
       86.95534,
       20.6868
      ]
     ]
    ]
   },
   "properties": {
    "id": "odisha-coast-p16",
    "area_ha": 330.7,
    "quality": 0.512,
    "confidence": 0.826,
    "habitat_class": "mangrove",
    "name": "Batighar Channel Edge",
    "protected": false,
    "perimeter_km": null,
    "bbox": null,
    "extra": {},
    "centroid_lat": 20.6868,
    "centroid_lon": 86.94375,
    "criticality_rank": 15,
    "criticality_score": 0.012701419542793968,
    "delta_connectivity": 2.4217529850481838e-05,
    "delta_pct": 1.2701419542793968,
    "degree": 0,
    "is_cut_vertex": false,
    "component_count_after": 7,
    "rank_by_area": 13,
    "criticality_level": "low"
   }
  }
 ]
}