{
 "type": "FeatureCollection",
 "features": [
  {
   "type": "Feature",
   "id": "P1",
   "geometry": {
    "type": "Polygon",
    "coordinates": [
     [
      [
       76.35056971809853,
       9.865130671898719
      ],
      [
       76.35020425462125,
       9.864951290265747
      ],
      [
       76.35011086387365,
       9.864409128163627
      ],
      [
       76.34983584681504,
       9.864048538455073
      ],
      [
       76.34955751867722,
       9.862874157344194
      ],
      [
       76.34955383934656,
       9.861969944973866
      ],
      [
       76.35028144612184,
       9.861514919318054
      ],
      [
       76.35028070993619,
       9.861334076887616
      ],
      [
       76.35055351577365,
       9.861152139295209
      ],
      [
       76.35055204317517,
       9.860790454465329
      ],
      [
       76.35109728508786,
       9.860336157616091
      ],
      [
       76.3520098261575,
       9.860513346622966
      ],
      [
       76.35210026948836,
       9.860332138845369
      ],
      [
       76.35282934367527,
       9.860238793105431
      ],
      [
       76.35301354832626,
       9.860690167302424
      ],
      [
       76.35355952406901,
       9.860416709138896
      ],
      [
       76.35355731044538,
       9.859874182543573
      ],
      [
       76.35282639385167,
       9.85951542408093
      ],
      [
       76.35282418163305,
       9.858972897291668
      ],
      [
       76.35300617284493,
       9.858881744867949
      ],
      [
       76.35300396047738,
       9.858339218098825
      ],
      [
       76.35318558254102,
       9.858157644504232
      ],
      [
       76.35318447627748,
       9.857886381130488
      ],
      [
       76.35345727762379,
       9.85770444174409
      ],
      [
       76.35372786541461,
       9.856979975525396
      ],
      [
       76.35901626451368,
       9.856958718003712
      ],
      [
       76.3590207084009,
       9.858043768900284
      ],
      [
       76.35811002363498,
       9.858318703126775
      ],
      [
       76.35811076385757,
       9.858499545001573
      ],
      [
       76.35792877461887,
       9.85859069996604
      ],
      [
       76.35747620581388,
       9.859406323228267
      ],
      [
       76.35638167681051,
       9.859320303222228
      ],
      [
       76.35592614661677,
       9.859412556919319
      ],
      [
       76.3559268857329,
       9.859593398946744
      ],
      [
       76.35574452566041,
       9.859594131867969
      ],
      [
       76.35565408460019,
       9.859775340337633
      ],
      [
       76.35483272508465,
       9.859597794996505
      ],
      [
       76.35465479575022,
       9.860683580024713
      ],
      [
       76.35474745328311,
       9.861044898033931
      ],
      [
       76.35447538875134,
       9.861407680818845
      ],
      [
       76.35456767713242,
       9.861678577808522
      ],
      [
       76.35438790044617,
       9.862312257556038
      ],
      [
       76.35457506326034,
       9.863486998771762
      ],
      [
       76.35503059952178,
       9.863394746122495
      ],
      [
       76.35475927256384,
       9.863938371371992
      ],
      [
       76.35457691001442,
       9.863939103981485
      ],
      [
       76.35466661378116,
       9.863577053535966
      ],
      [
       76.35430188905138,
       9.863578518503097
      ],
      [
       76.35402982228086,
       9.86394130121866
      ],
      [
       76.35375664750399,
       9.864032820575884
      ],
      [
       76.35320955942956,
       9.864035016503145
      ],
      [
       76.35284409620029,
       9.863855637750524
      ],
      [
       76.35284335843916,
       9.86367479553717
      ],
      [
       76.35256981460955,
       9.863675892831523
      ],
      [
       76.35229663947773,
       9.86376741103157
      ],
      [
       76.35211575159154,
       9.864129826829037
      ],
      [
       76.35175139446628,
       9.864221710264264
      ],
      [
       76.35138814261799,
       9.864584856804909
      ],
      [
       76.35138887965502,
       9.864765699117628
      ],
      [
       76.35093333987973,
       9.8648579472249
      ],
      [
       76.35056971809853,
       9.865130671898719
      ]
     ],
     [
      [
       76.35310509760505,
       9.860780222664987
      ],
      [
       76.35319701580163,
       9.860960699104256
      ],
      [
       76.35319627806896,
       9.860779856886417
      ],
      [
       76.35310509760505,
       9.860780222664987
      ]
     ]
    ]
   },
   "properties": {
    "id": "P1",
    "area_ha": 39.0400000000008,
    "quality": 0.9904796307082059,
    "confidence": 0.9904796307082059,
    "habitat_class": "mangrove",
    "name": null,
    "protected": false,
    "perimeter_km": 3.9826079965494814,
    "bbox": [
     9.856958718003712,
     76.34955383934656,
     9.865130671898719,
     76.3590207084009
    ],
    "extra": {
     "pixel_count": 3904,
     "label_value": 4,
     "centroid_pixel": [
      901.0243340163935,
      1303.5099897540983
     ]
    },
    "centroid_lat": 9.86059609029304,
    "centroid_lon": 76.3536992476644,
    "criticality_rank": 1,
    "criticality_score": 0.7003723839158126,
    "delta_connectivity": 9.663742400224778e-07,
    "delta_pct": 70.03723839158125,
    "degree": 1,
    "is_cut_vertex": false,
    "component_count_after": 3,
    "rank_by_area": 1,
    "criticality_level": "critical"
   }
  },
  {
   "type": "Feature",
   "id": "P2",
   "geometry": {
    "type": "Polygon",
    "coordinates": [
     [
      [
       76.3667997715085,
       9.82066797129838
      ],
      [
       76.36652515182236,
       9.820397812663579
      ],
      [
       76.36652440994979,
       9.820216971017802
      ],
      [
       76.36615862210843,
       9.819947179865121
      ],
      [
       76.36597331848316,
       9.819224548597346
      ],
      [
       76.36478812662291,
       9.819229326679963
      ],
      [
       76.36469621720283,
       9.819048852256467
      ],
      [
       76.36468547735062,
       9.816426645982373
      ],
      [
       76.36495972166097,
       9.816606385914682
      ],
      [
       76.36496046240643,
       9.816787227717397
      ],
      [
       76.36523396625003,
       9.81678612558298
      ],
      [
       76.36523322535625,
       9.816605283800953
      ],
      [
       76.36550561748301,
       9.816332918820866
      ],
      [
       76.36541148593152,
       9.815609919175207
      ],
      [
       76.36605002977002,
       9.815697767506505
      ],
      [
       76.3664158123986,
       9.815967559486346
      ],
      [
       76.36787449471548,
       9.815961673107271
      ],
      [
       76.36805608757875,
       9.815780095291716
      ],
      [
       76.36851229663417,
       9.815868675072048
      ],
      [
       76.36878765625494,
       9.816319673970636
      ],
      [
       76.36878988469901,
       9.816862198511625
      ],
      [
       76.3689733347655,
       9.817132723956576
      ],
      [
       76.36888290978368,
       9.817313933878076
      ],
      [
       76.36906598869899,
       9.817494038480342
      ],
      [
       76.3690674747973,
       9.817855721442388
      ],
      [
       76.36934246549933,
       9.818216298786265
      ],
      [
       76.36916310182035,
       9.818940401741065
      ],
      [
       76.36889071125148,
       9.819212769506423
      ],
      [
       76.36889368365559,
       9.819936135402594
      ],
      [
       76.36843784028856,
       9.819937977679166
      ],
      [
       76.36816322014027,
       9.819667820460495
      ],
      [
       76.36770737700064,
       9.819669661704232
      ],
      [
       76.36789008555115,
       9.819759346054612
      ],
      [
       76.36807427957346,
       9.8202107133552
      ],
      [
       76.3682566171081,
       9.820209976693608
      ],
      [
       76.36825735992036,
       9.820390818208123
      ],
      [
       76.36752763808994,
       9.8203033435365
      ],
      [
       76.36743721164531,
       9.820484553262528
      ],
      [
       76.36707216504577,
       9.820395604844697
      ],
      [
       76.36698210939083,
       9.820667235288981
      ],
      [
       76.3667997715085,
       9.82066797129838
      ]
     ]
    ]
   },
   "properties": {
    "id": "P2",
    "area_ha": 20.22000000000036,
    "quality": 0.9870074014930178,
    "confidence": 0.9870074014930178,
    "habitat_class": "mangrove",
    "name": null,
    "protected": false,
    "perimeter_km": 2.1807131677118847,
    "bbox": [
     9.815609919175207,
     76.36468547735062,
     9.82066797129838,
     76.36934246549933
    ],
    "extra": {
     "pixel_count": 2022,
     "label_value": 24,
     "centroid_pixel": [
      1048.6676557863502,
      1774.1473788328387
     ]
    },
    "centroid_lat": 9.817986433565839,
    "centroid_lon": 76.3669863944637,
    "criticality_rank": 2,
    "criticality_score": 0.3627440984318056,
    "delta_connectivity": 5.005145269788537e-07,
    "delta_pct": 36.27440984318056,
    "degree": 1,
    "is_cut_vertex": false,
    "component_count_after": 3,
    "rank_by_area": 2,
    "criticality_level": "critical"
   }
  },
  {
   "type": "Feature",
   "id": "P3",
   "geometry": {
    "type": "Polygon",
    "coordinates": [
     [
      [
       76.27166046185171,
       9.903596981325554
      ],
      [
       76.2718331033208,
       9.901064423089892
      ],
      [
       76.2721045977504,
       9.900520844330433
      ],
      [
       76.27228733474928,
       9.900610577631063
      ],
      [
       76.27246902697145,
       9.900429039315911
      ],
      [
       76.27356266171144,
       9.900244045847197
      ],
      [
       76.2736545531743,
       9.900424547791172
      ],
      [
       76.27429395956653,
       9.90069339885692
      ],
      [
       76.27511470860804,
       9.90069028524597
      ],
      [
       76.27593650511874,
       9.900958440763507
      ],
      [
       76.27621148553972,
       9.901319096548084
      ],
      [
       76.27648506889662,
       9.901318057274386
      ],
      [
       76.27675970070756,
       9.901588288812507
      ],
      [
       76.2767642444875,
       9.902763796576611
      ],
      [
       76.27640121237458,
       9.9032173011416
      ],
      [
       76.27603713117719,
       9.903399534349806
      ],
      [
       76.27603782991821,
       9.903580381735297
      ],
      [
       76.27166046185171,
       9.903596981325554
      ]
     ]
    ]
   },
   "properties": {
    "id": "P3",
    "area_ha": 17.06999999999987,
    "quality": 0.9954863519227218,
    "confidence": 0.9954863519227218,
    "habitat_class": "mangrove",
    "name": null,
    "protected": false,
    "perimeter_km": 1.6646613673399877,
    "bbox": [
     9.900244045847197,
     76.27166046185171,
     9.903596981325554,
     76.2767642444875
    ],
    "extra": {
     "pixel_count": 1707,
     "label_value": 2,
     "centroid_pixel": [
      25.94903339191564,
      847.7809021675454
     ]
    },
    "centroid_lat": 9.90211566116183,
    "centroid_lon": 76.27406680792629,
    "criticality_rank": 3,
    "criticality_score": 0.12357516410466478,
    "delta_connectivity": 1.7050908636576558e-07,
    "delta_pct": 12.357516410466477,
    "degree": 1,
    "is_cut_vertex": false,
    "component_count_after": 3,
    "rank_by_area": 3,
    "criticality_level": "high"
   }
  },
  {
   "type": "Feature",
   "id": "P4",
   "geometry": {
    "type": "Polygon",
    "coordinates": [
     [
      [
       76.27986800733146,
       9.785199233303771
      ],
      [
       76.27950058909907,
       9.784477212873094
      ],
      [
       76.27949747500097,
       9.783663395004641
      ],
      [
       76.27976438646824,
       9.78194430541745
      ],
      [
       76.2800371790673,
       9.781762427285258
      ],
      [
       76.28021811765723,
       9.781400043907158
      ],
      [
       76.28103926300994,
       9.781577801461083
      ],
      [
       76.2826798216708,
       9.781481189741049
      ],
      [
       76.28277202344864,
       9.781752118069157
      ],
      [
       76.28313666913766,
       9.781750741845686
      ],
      [
       76.28331795109759,
       9.781478781332524
      ],
      [
       76.28368294346028,
       9.78156782863408
      ],
      [
       76.28377549313667,
       9.781929180649021
      ],
      [
       76.28350200879781,
       9.781930213385781
      ],
      [
       76.2829571212981,
       9.782474822767922
      ],
      [
       76.28259282158537,
       9.782566623005586
      ],
      [
       76.28250270024671,
       9.782838239305288
      ],
      [
       76.28268571737156,
       9.78301839951224
      ],
      [
       76.28195642304651,
       9.783021150953818
      ],
      [
       76.28186699434677,
       9.783473615413685
      ],
      [
       76.28132036918615,
       9.783566102065006
      ],
      [
       76.28113977745004,
       9.784018910132154
      ],
      [
       76.28050302777848,
       9.784383011755681
      ],
      [
       76.28059488264743,
       9.784563516586612
      ],
      [
       76.28032208832144,
       9.78474539539006
      ],
      [
       76.28032312710994,
       9.785016667912291
      ],
      [
       76.27986800733146,
       9.785199233303771
      ]
     ]
    ]
   },
   "properties": {
    "id": "P4",
    "area_ha": 9.57999999999984,
    "quality": 0.9849226063502358,
    "confidence": 0.9849226063502358,
    "habitat_class": "mangrove",
    "name": null,
    "protected": false,
    "perimeter_km": 1.5997376466780775,
    "bbox": [
     9.781400043907158,
     76.27949747500097,
     9.785199233303771,
     76.28377549313667
    ],
    "extra": {
     "pixel_count": 958,
     "label_value": 26,
     "centroid_pixel": [
      107.64300626304802,
      2166.5417536534446
     ]
    },
    "centroid_lat": 9.782839915065559,
    "centroid_lon": 76.281057134306,
    "criticality_rank": 5,
    "criticality_score": 0.03593307406603516,
    "delta_connectivity": 4.9580477385599184e-08,
    "delta_pct": 3.593307406603516,
    "degree": 1,
    "is_cut_vertex": false,
    "component_count_after": 3,
    "rank_by_area": 4,
    "criticality_level": "medium"
   }
  },
  {
   "type": "Feature",
   "id": "P5",
   "geometry": {
    "type": "Polygon",
    "coordinates": [
     [
      [
       76.28432109991121,
       9.899570125212072
      ],
      [
       76.28395491958827,
       9.89920982538828
      ],
      [
       76.2837679653405,
       9.89803501739131
      ],
      [
       76.28358557877262,
       9.898035713989342
      ],
      [
       76.28349333185547,
       9.89776479187669
      ],
      [
       76.28358276896543,
       9.897312326339783
      ],
      [
       76.28394718997929,
       9.897220509703146
      ],
      [
       76.28394648736845,
       9.897039662810737
      ],
      [
       76.2842200663519,
       9.897038617686942
      ],
      [
       76.28449469967516,
       9.897308842620086
      ],
      [
       76.28549782306648,
       9.897305007672642
      ],
      [
       76.28559042315281,
       9.89766635243583
      ],
      [
       76.2857731611989,
       9.89775607815383
      ],
      [
       76.2857749203798,
       9.89820819503656
      ],
      [
       76.28595836258425,
       9.898478767342796
      ],
      [
       76.28568724548738,
       9.899112777659049
      ],
      [
       76.28468587462153,
       9.899568730905122
      ],
      [
       76.28432109991121,
       9.899570125212072
      ]
     ]
    ]
   },
   "properties": {
    "id": "P5",
    "area_ha": 5.129999999999935,
    "quality": 0.9843990978209364,
    "confidence": 0.9843990978209364,
    "habitat_class": "mangrove",
    "name": null,
    "protected": false,
    "perimeter_km": 0.9210038813199632,
    "bbox": [
     9.897038617686942,
     76.28349333185547,
     9.899570125212072,
     76.28595836258425
    ],
    "extra": {
     "pixel_count": 513,
     "label_value": 3,
     "centroid_pixel": [
      142.84405458089668,
      889.7738791423002
     ]
    },
    "centroid_lat": 9.89827791814208,
    "centroid_lon": 76.28471223180456,
    "criticality_rank": 4,
    "criticality_score": 0.04732198300247363,
    "delta_connectivity": 6.529490084216268e-08,
    "delta_pct": 4.732198300247363,
    "degree": 2,
    "is_cut_vertex": true,
    "component_count_after": 4,
    "rank_by_area": 5,
    "criticality_level": "medium"
   }
  },
  {
   "type": "Feature",
   "id": "P6",
   "geometry": {
    "type": "Polygon",
    "coordinates": [
     [
      [
       76.28605800533896,
       9.782824805792398
      ],
      [
       76.28578312987948,
       9.782464144492263
      ],
      [
       76.28587255305263,
       9.782011679687603
      ],
      [
       76.28523442325115,
       9.782014093020884
      ],
      [
       76.2855962882944,
       9.781289322091185
      ],
      [
       76.28550234692611,
       9.780566274740927
      ],
      [
       76.2858666433265,
       9.780474471754598
      ],
      [
       76.28586838138013,
       9.78092659174966
      ],
      [
       76.28568710191252,
       9.781198553328279
      ],
      [
       76.28577895830033,
       9.781379056544875
      ],
      [
       76.28596128073234,
       9.781378366895527
      ],
      [
       76.28614325544267,
       9.781287253162642
      ],
      [
       76.2861415169522,
       9.78083513322615
      ],
      [
       76.28632383906171,
       9.780834443420353
      ],
      [
       76.28632279586013,
       9.78056317147205
      ],
      [
       76.28659523538458,
       9.780290864685897
      ],
      [
       76.28677755716484,
       9.780290174674812
      ],
      [
       76.2869650976772,
       9.781645843944153
      ],
      [
       76.28660288763716,
       9.782280192021958
      ],
      [
       76.28605800533896,
       9.782824805792398
      ]
     ]
    ]
   },
   "properties": {
    "id": "P6",
    "area_ha": 2.809999999999984,
    "quality": 0.9801983761193489,
    "confidence": 0.9801983761193489,
    "habitat_class": "mangrove",
    "name": null,
    "protected": false,
    "perimeter_km": 1.0122926778804968,
    "bbox": [
     9.780290174674812,
     76.28523442325115,
     9.782824805792398,
     76.2869650976772
    ],
    "extra": {
     "pixel_count": 281,
     "label_value": 28,
     "centroid_pixel": [
      164.2099644128114,
      2180.967971530249
     ]
    },
    "centroid_lat": 9.781515964393167,
    "centroid_lon": 76.28620885709422,
    "criticality_rank": 7,
    "criticality_score": 0.010539868280329847,
    "delta_connectivity": 1.4542916644419132e-08,
    "delta_pct": 1.0539868280329847,
    "degree": 1,
    "is_cut_vertex": false,
    "component_count_after": 3,
    "rank_by_area": 6,
    "criticality_level": "low"
   }
  },
  {
   "type": "Feature",
   "id": "P7",
   "geometry": {
    "type": "Polygon",
    "coordinates": [
     [
      [
       76.28133591080876,
       9.858709435725913
      ],
      [
       76.28133311729128,
       9.8579860457514
      ],
      [
       76.28160387040056,
       9.85726161689825
      ],
      [
       76.28160177511805,
       9.856719074431023
      ],
      [
       76.28187357470381,
       9.856265916733049
      ],
      [
       76.28178064671265,
       9.85581414436189
      ],
      [
       76.28196126385762,
       9.855361332982975
      ],
      [
       76.28232459283973,
       9.854998252473
      ],
      [
       76.2825069558022,
       9.854997559553308
      ],
      [
       76.28242276225946,
       9.856806380452156
      ],
      [
       76.2827899369346,
       9.857437960068344
      ],
      [
       76.28242555781098,
       9.857529770167314
      ],
      [
       76.2823336767745,
       9.857349269273278
      ],
      [
       76.28215131250757,
       9.857349962262964
      ],
      [
       76.28206117843824,
       9.857621579897723
      ],
      [
       76.28169679881643,
       9.857713389259562
      ],
      [
       76.28160910913638,
       9.85861797298823
      ],
      [
       76.28133591080876,
       9.858709435725913
      ]
     ],
     [
      [
       76.28215061376194,
       9.857169114815727
      ],
      [
       76.28242450945393,
       9.85725849902785
      ],
      [
       76.2824241600083,
       9.857168075313702
      ],
      [
       76.28215061376194,
       9.857169114815727
      ]
     ]
    ]
   },
   "properties": {
    "id": "P7",
    "area_ha": 2.569999999999989,
    "quality": 0.9824138005419928,
    "confidence": 0.9824138005419928,
    "habitat_class": "mangrove",
    "name": null,
    "protected": false,
    "perimeter_km": 1.10622224183543,
    "bbox": [
     9.854997559553308,
     76.28133311729128,
     9.858709435725913,
     76.2827899369346
    ],
    "extra": {
     "pixel_count": 257,
     "label_value": 5,
     "centroid_pixel": [
      115.1828793774319,
      1349.046692607004
     ]
    },
    "centroid_lat": 9.856758442226457,
    "centroid_lon": 76.28202892765955,
    "criticality_rank": 6,
    "criticality_score": 0.014844618839292846,
    "delta_connectivity": 2.0482614076013254e-08,
    "delta_pct": 1.4844618839292847,
    "degree": 1,
    "is_cut_vertex": false,
    "component_count_after": 3,
    "rank_by_area": 7,
    "criticality_level": "low"
   }
  }
 ]
}