{
 "type": "FeatureCollection",
 "features": [
  {
   "type": "Feature",
   "id": "gulf-of-mannar-p01",
   "geometry": {
    "type": "Polygon",
    "coordinates": [
     [
      [
       79.25759,
       9.12473
      ],
      [
       79.25325,
       9.12876
      ],
      [
       79.24772,
       9.1288
      ],
      [
       79.24428,
       9.13096
      ],
      [
       79.23824,
       9.13134
      ],
      [
       79.23608,
       9.12692
      ],
      [
       79.23449,
       9.12217
      ],
      [
       79.23872,
       9.11856
      ],
      [
       79.24447,
       9.11953
      ],
      [
       79.24925,
       9.11798
      ],
      [
       79.25305,
       9.12079
      ],
      [
       79.25759,
       9.12473
      ]
     ]
    ]
   },
   "properties": {
    "id": "gulf-of-mannar-p01",
    "area_ha": 195.2,
    "quality": 0.837,
    "confidence": 0.979,
    "habitat_class": "water",
    "name": "Krusadai Island Reef",
    "protected": false,
    "perimeter_km": null,
    "bbox": null,
    "extra": {},
    "centroid_lat": 9.12473,
    "centroid_lon": 79.2454,
    "criticality_rank": 9,
    "criticality_score": 0.05561491262050637,
    "delta_connectivity": 4.498655676002112e-05,
    "delta_pct": 5.561491262050638,
    "degree": 3,
    "is_cut_vertex": false,
    "component_count_after": 9,
    "rank_by_area": 14,
    "criticality_level": "medium"
   }
  },
  {
   "type": "Feature",
   "id": "gulf-of-mannar-p02",
   "geometry": {
    "type": "Polygon",
    "coordinates": [
     [
      [
       79.24979,
       9.1433
      ],
      [
       79.25097,
       9.14994
      ],
      [
       79.24488,
       9.15528
      ],
      [
       79.23586,
       9.15545
      ],
      [
       79.22587,
       9.15454
      ],
      [
       79.22426,
       9.14653
      ],
      [
       79.22655,
       9.1406
      ],
      [
       79.22805,
       9.13407
      ],
      [
       79.23627,
       9.13343
      ],
      [
       79.24499,
       9.13112
      ],
      [
       79.25,
       9.13715
      ],
      [
       79.24979,
       9.1433
      ]
     ]
    ]
   },
   "properties": {
    "id": "gulf-of-mannar-p02",
    "area_ha": 599,
    "quality": 0.619,
    "confidence": 0.965,
    "habitat_class": "water",
    "name": "Shingle Island",
    "protected": false,
    "perimeter_km": null,
    "bbox": null,
    "extra": {},
    "centroid_lat": 9.1433,
    "centroid_lon": 79.23804,
    "criticality_rank": 3,
    "criticality_score": 0.17066256485493453,
    "delta_connectivity": 0.00013804788677895786,
    "delta_pct": 17.066256485493454,
    "degree": 3,
    "is_cut_vertex": false,
    "component_count_after": 9,
    "rank_by_area": 3,
    "criticality_level": "high"
   }
  },
  {
   "type": "Feature",
   "id": "gulf-of-mannar-p03",
   "geometry": {
    "type": "Polygon",
    "coordinates": [
     [
      [
       79.26947,
       9.14288
      ],
      [
       79.27003,
       9.14833
      ],
      [
       79.26314,
       9.14844
      ],
      [
       79.25794,
       9.14839
      ],
      [
       79.25696,
       9.14432
      ],
      [
       79.25467,
       9.14077
      ],
      [
       79.25694,
       9.13599
      ],
      [
       79.26356,
       9.13544
      ],
      [
       79.26693,
       9.13951
      ],
      [
       79.26947,
       9.14288
      ]
     ]
    ]
   },
   "properties": {
    "id": "gulf-of-mannar-p03",
    "area_ha": 129.4,
    "quality": 0.415,
    "confidence": 0.841,
    "habitat_class": "coral",
    "name": "Manoli Reef Flat",
    "protected": false,
    "perimeter_km": null,
    "bbox": null,
    "extra": {},
    "centroid_lat": 9.14288,
    "centroid_lon": 79.26192,
    "criticality_rank": 12,
    "criticality_score": 0.03686767260806126,
    "delta_connectivity": 2.982203096694037e-05,
    "delta_pct": 3.686767260806126,
    "degree": 3,
    "is_cut_vertex": false,
    "component_count_after": 9,
    "rank_by_area": 17,
    "criticality_level": "medium"
   }
  },
  {
   "type": "Feature",
   "id": "gulf-of-mannar-p04",
   "geometry": {
    "type": "Polygon",
    "coordinates": [
     [
      [
       79.25348,
       9.16684
      ],
      [
       79.25338,
       9.17631
      ],
      [
       79.24155,
       9.17711
      ],
      [
       79.22827,
       9.18211
      ],
      [
       79.2264,
       9.1706
      ],
      [
       79.22691,
       9.16324
      ],
      [
       79.23417,
       9.15975
      ],
      [
       79.24114,
       9.15843
      ],
      [
       79.24836,
       9.16075
      ],
      [
       79.25348,
       9.16684
      ]
     ]
    ]
   },
   "properties": {
    "id": "gulf-of-mannar-p04",
    "area_ha": 648.8,
    "quality": 0.527,
    "confidence": 0.947,
    "habitat_class": "urban",
    "name": "Poomarichan Meadow",
    "protected": false,
    "perimeter_km": null,
    "bbox": null,
    "extra": {},
    "centroid_lat": 9.16684,
    "centroid_lon": 79.23929,
    "criticality_rank": 2,
    "criticality_score": 0.18485120547225645,
    "delta_connectivity": 0.0001495249898867912,
    "delta_pct": 18.485120547225645,
    "degree": 3,
    "is_cut_vertex": false,
    "component_count_after": 9,
    "rank_by_area": 2,
    "criticality_level": "high"
   }
  },
  {
   "type": "Feature",
   "id": "gulf-of-mannar-p05",
   "geometry": {
    "type": "Polygon",
    "coordinates": [
     [
      [
       79.22334,
       9.20301
      ],
      [
       79.21255,
       9.20756
      ],
      [
       79.20761,
       9.21129
      ],
      [
       79.1983,
       9.21339
      ],
      [
       79.19564,
       9.20597
      ],
      [
       79.191,
       9.19871
      ],
      [
       79.20004,
       9.19505
      ],
      [
       79.20753,
       9.19511
      ],
      [
       79.21326,
       9.198
      ],
      [
       79.22334,
       9.20301
      ]
     ]
    ]
   },
   "properties": {
    "id": "gulf-of-mannar-p05",
    "area_ha": 509.5,
    "quality": 0.42,
    "confidence": 0.916,
    "habitat_class": "urban",
    "name": "Pullivasal Reef",
    "protected": true,
    "perimeter_km": null,
    "bbox": null,
    "extra": {},
    "centroid_lat": 9.20301,
    "centroid_lon": 79.20579,
    "criticality_rank": 6,
    "criticality_score": 0.12184303914072313,
    "delta_connectivity": 9.85580762037653e-05,
    "delta_pct": 12.184303914072313,
    "degree": 1,
    "is_cut_vertex": false,
    "component_count_after": 9,
    "rank_by_area": 6,
    "criticality_level": "high"
   }
  },
  {
   "type": "Feature",
   "id": "gulf-of-mannar-p06",
   "geometry": {
    "type": "Polygon",
    "coordinates": [
     [
      [
       79.1911,
       9.1935
      ],
      [
       79.18709,
       9.19897
      ],
      [
       79.18125,
       9.20229
      ],
      [
       79.17419,
       9.2021
      ],
      [
       79.16796,
       9.19915
      ],
      [
       79.1704,
       9.1935
      ],
      [
       79.17005,
       9.18907
      ],
      [
       79.17525,
       9.18751
      ],
      [
       79.17977,
       9.18837
      ],
      [
       79.18457,
       9.1895
      ],
      [
       79.1911,
       9.1935
      ]
     ]
    ]
   },
   "properties": {
    "id": "gulf-of-mannar-p06",
    "area_ha": 253.1,
    "quality": 0.563,
    "confidence": 0.923,
    "habitat_class": "coral",
    "name": "Hare Island Bank",
    "protected": true,
    "perimeter_km": null,
    "bbox": null,
    "extra": {},
    "centroid_lat": 9.1935,
    "centroid_lon": 79.17768,
    "criticality_rank": 5,
    "criticality_score": 0.12474404740196883,
    "delta_connectivity": 0.00010090468373502842,
    "delta_pct": 12.474404740196883,
    "degree": 2,
    "is_cut_vertex": true,
    "component_count_after": 10,
    "rank_by_area": 13,
    "criticality_level": "high"
   }
  },
  {
   "type": "Feature",
   "id": "gulf-of-mannar-p07",
   "geometry": {
    "type": "Polygon",
    "coordinates": [
     [
      [
       79.19327,
       9.16025
      ],
      [
       79.18529,
       9.16792
      ],
      [
       79.17761,
       9.17726
      ],
      [
       79.1632,
       9.17501
      ],
      [
       79.14975,
       9.16727
      ],
      [
       79.15786,
       9.15559
      ],
      [
       79.16021,
       9.14134
      ],
      [
       79.1763,
       9.14919
      ],
      [
       79.19001,
       9.14941
      ],
      [
       79.19327,
       9.16025
      ]
     ]
    ]
   },
   "properties": {
    "id": "gulf-of-mannar-p07",
    "area_ha": 835.8,
    "quality": 0.46,
    "confidence": 0.875,
    "habitat_class": "mudflat",
    "name": "Musal Island Shelf",
    "protected": false,
    "perimeter_km": null,
    "bbox": null,
    "extra": {},
    "centroid_lat": 9.16025,
    "centroid_lon": 79.17386,
    "criticality_rank": 1,
    "criticality_score": 0.21634720548810005,
    "delta_connectivity": 0.00017500190831862804,
    "delta_pct": 21.634720548810005,
    "degree": 1,
    "is_cut_vertex": false,
    "component_count_after": 9,
    "rank_by_area": 1,
    "criticality_level": "high"
   }
  },
  {
   "type": "Feature",
   "id": "gulf-of-mannar-p08",
   "geometry": {
    "type": "Polygon",
    "coordinates": [
     [
      [
       79.10645,
       9.20303
      ],
      [
       79.10622,
       9.20643
      ],
      [
       79.10477,
       9.21209
      ],
      [
       79.09793,
       9.21233
      ],
      [
       79.09083,
       9.21113
      ],
      [
       79.08722,
       9.20594
      ],
      [
       79.09367,
       9.20164
      ],
      [
       79.09253,
       9.19651
      ],
      [
       79.09804,
       9.19438
      ],
      [
       79.10462,
       9.19424
      ],
      [
       79.10684,
       9.19931
      ],
      [
       79.10645,
       9.20303
      ]
     ]
    ]
   },
   "properties": {
    "id": "gulf-of-mannar-p08",
    "area_ha": 256.4,
    "quality": 0.9,
    "confidence": 0.925,
    "habitat_class": "urban",
    "name": "Vaan Island Reef",
    "protected": false,
    "perimeter_km": null,
    "bbox": null,
    "extra": {},
    "centroid_lat": 9.20303,
    "centroid_lon": 79.0996,
    "criticality_rank": 16,
    "criticality_score": 0.011911993628006587,
    "delta_connectivity": 9.63553752440381e-06,
    "delta_pct": 1.1911993628006587,
    "degree": 0,
    "is_cut_vertex": false,
    "component_count_after": 8,
    "rank_by_area": 12,
    "criticality_level": "low"
   }
  },
  {
   "type": "Feature",
   "id": "gulf-of-mannar-p09",
   "geometry": {
    "type": "Polygon",
    "coordinates": [
     [
      [
       79.13208,
       9.16238
      ],
      [
       79.12993,
       9.1649
      ],
      [
       79.12816,
       9.1687
      ],
      [
       79.12282,
       9.16922
      ],
      [
       79.12042,
       9.16539
      ],
      [
       79.11656,
       9.16238
      ],
      [
       79.11721,
       9.15751
      ],
      [
       79.12317,
       9.1564
      ],
      [
       79.12722,
       9.15838
      ],
      [
       79.13348,
       9.1578
      ],
      [
       79.13208,
       9.16238
      ]
     ]
    ]
   },
   "properties": {
    "id": "gulf-of-mannar-p09",
    "area_ha": 141.1,
    "quality": 0.731,
    "confidence": 0.813,
    "habitat_class": "urban",
    "name": "Koswari Bank",
    "protected": true,
    "perimeter_km": null,
    "bbox": null,
    "extra": {},
    "centroid_lat": 9.16238,
    "centroid_lon": 79.1256,
    "criticality_rank": 17,
    "criticality_score": 0.0036074675918734084,
    "delta_connectivity": 2.918058087929298e-06,
    "delta_pct": 0.36074675918734084,
    "degree": 0,
    "is_cut_vertex": false,
    "component_count_after": 8,
    "rank_by_area": 16,
    "criticality_level": "low"
   }
  },
  {
   "type": "Feature",
   "id": "gulf-of-mannar-p10",
   "geometry": {
    "type": "Polygon",
    "coordinates": [
     [
      [
       79.1508,
       9.09752
      ],
      [
       79.1531,
       9.10548
      ],
      [
       79.14174,
       9.10473
      ],
      [
       79.13502,
       9.11199
      ],
      [
       79.13178,
       9.10292
      ],
      [
       79.12632,
       9.10018
      ],
      [
       79.12418,
       9.09437
      ],
      [
       79.12798,
       9.08862
      ],
      [
       79.13634,
       9.09038
      ],
      [
       79.14218,
       9.08954
      ],
      [
       79.14954,
       9.0914
      ],
      [
       79.1508,
       9.09752
      ]
     ]
    ]
   },
   "properties": {
    "id": "gulf-of-mannar-p10",
    "area_ha": 467.4,
    "quality": 0.717,
    "confidence": 0.838,
    "habitat_class": "mudflat",
    "name": "Kariyachalli Reef",
    "protected": false,
    "perimeter_km": null,
    "bbox": null,
    "extra": {},
    "centroid_lat": 9.09752,
    "centroid_lon": 79.13762,
    "criticality_rank": 7,
    "criticality_score": 0.11959212197182997,
    "delta_connectivity": 9.673732331197382e-05,
    "delta_pct": 11.959212197182998,
    "degree": 2,
    "is_cut_vertex": false,
    "component_count_after": 9,
    "rank_by_area": 7,
    "criticality_level": "high"
   }
  },
  {
   "type": "Feature",
   "id": "gulf-of-mannar-p11",
   "geometry": {
    "type": "Polygon",
    "coordinates": [
     [
      [
       79.11027,
       9.09106
      ],
      [
       79.11189,
       9.09822
      ],
      [
       79.1043,
       9.10269
      ],
      [
       79.09448,
       9.10362
      ],
      [
       79.09011,
       9.09657
      ],
      [
       79.08943,
       9.09106
      ],
      [
       79.08967,
       9.0853
      ],
      [
       79.09376,
       9.07674
      ],
      [
       79.10517,
       9.0773
      ],
      [
       79.11004,
       9.08498
      ],
      [
       79.11027,
       9.09106
      ]
     ]
    ]
   },
   "properties": {
    "id": "gulf-of-mannar-p11",
    "area_ha": 530.1,
    "quality": 0.73,
    "confidence": 0.929,
    "habitat_class": "coral",
    "name": "Vilanguchalli Shoal",
    "protected": true,
    "perimeter_km": null,
    "bbox": null,
    "extra": {},
    "centroid_lat": 9.09106,
    "centroid_lon": 79.09958,
    "criticality_rank": 4,
    "criticality_score": 0.1356349676021973,
    "delta_connectivity": 0.0001097142813172385,
    "delta_pct": 13.56349676021973,
    "degree": 2,
    "is_cut_vertex": false,
    "component_count_after": 9,
    "rank_by_area": 4,
    "criticality_level": "high"
   }
  },
  {
   "type": "Feature",
   "id": "gulf-of-mannar-p12",
   "geometry": {
    "type": "Polygon",
    "coordinates": [
     [
      [
       79.15339,
       9.0955
      ],
      [
       79.15094,
       9.09872
      ],
      [
       79.15161,
       9.1061
      ],
      [
       79.14396,
       9.10834
      ],
      [
       79.13986,
       9.10118
      ],
      [
       79.13301,
       9.10055
      ],
      [
       79.13114,
       9.0955
      ],
      [
       79.13035,
       9.08921
      ],
      [
       79.13712,
       9.08602
      ],
      [
       79.14396,
       9.08891
      ],
      [
       79.1496,
       9.08768
      ],
      [
       79.15276,
       9.09143
      ],
      [
       79.15339,
       9.0955
      ]
     ]
    ]
   },
   "properties": {
    "id": "gulf-of-mannar-p12",
    "area_ha": 414.6,
    "quality": 0.422,
    "confidence": 0.944,
    "habitat_class": "dune",
    "name": "Nallathanni Meadow",
    "protected": true,
    "perimeter_km": null,
    "bbox": null,
    "extra": {},
    "centroid_lat": 9.0955,
    "centroid_lon": 79.14396,
    "criticality_rank": 8,
    "criticality_score": 0.1060823572304678,
    "delta_connectivity": 8.580935867596128e-05,
    "delta_pct": 10.60823572304678,
    "degree": 2,
    "is_cut_vertex": false,
    "component_count_after": 9,
    "rank_by_area": 9,
    "criticality_level": "high"
   }
  },
  {
   "type": "Feature",
   "id": "gulf-of-mannar-p13",
   "geometry": {
    "type": "Polygon",
    "coordinates": [
     [
      [
       79.19987,
       9.06749
      ],
      [
       79.19761,
       9.0727
      ],
      [
       79.19174,
       9.07606
      ],
      [
       79.18599,
       9.07284
      ],
      [
       79.1753,
       9.07172
      ],
      [
       79.18105,
       9.06492
      ],
      [
       79.18238,
       9.05713
      ],
      [
       79.19183,
       9.0585
      ],
      [
       79.19969,
       9.06088
      ],
      [
       79.19987,
       9.06749
      ]
     ]
    ]
   },
   "properties": {
    "id": "gulf-of-mannar-p13",
    "area_ha": 341.3,
    "quality": 0.709,
    "confidence": 0.888,
    "habitat_class": "mudflat",
    "name": "Anaipar Reef Flat",
    "protected": true,
    "perimeter_km": null,
    "bbox": null,
    "extra": {},
    "centroid_lat": 9.06749,
    "centroid_lon": 79.18985,
    "criticality_rank": 14,
    "criticality_score": 0.02110673158764237,
    "delta_connectivity": 1.7073103846537317e-05,
    "delta_pct": 2.1106731587642367,
    "degree": 0,
    "is_cut_vertex": false,
    "component_count_after": 8,
    "rank_by_area": 11,
    "criticality_level": "low"
   }
  },
  {
   "type": "Feature",
   "id": "gulf-of-mannar-p14",
   "geometry": {
    "type": "Polygon",
    "coordinates": [
     [
      [
       79.20926,
       9.01031
      ],
      [
       79.21048,
       9.01806
      ],
      [
       79.20018,
       9.01866
      ],
      [
       79.19263,
       9.02576
      ],
      [
       79.18307,
       9.0217
      ],
      [
       79.18468,
       9.01283
      ],
      [
       79.18367,
       9.00755
      ],
      [
       79.1831,
       8.99894
      ],
      [
       79.19404,
       9.00265
      ],
      [
       79.20201,
       8.99876
      ],
      [
       79.20495,
       9.0054
      ],
      [
       79.20926,
       9.01031
      ]
     ]
    ]
   },
   "properties": {
    "id": "gulf-of-mannar-p14",
    "area_ha": 511.3,
    "quality": 0.898,
    "confidence": 0.81,
    "habitat_class": "seagrass",
    "name": "Valimunai Bank",
    "protected": true,
    "perimeter_km": null,
    "bbox": null,
    "extra": {},
    "centroid_lat": 9.01031,
    "centroid_lon": 79.19541,
    "criticality_rank": 11,
    "criticality_score": 0.04736963040187464,
    "delta_connectivity": 3.831699927888429e-05,
    "delta_pct": 4.736963040187464,
    "degree": 0,
    "is_cut_vertex": false,
    "component_count_after": 8,
    "rank_by_area": 5,
    "criticality_level": "medium"
   }
  },
  {
   "type": "Feature",
   "id": "gulf-of-mannar-p15",
   "geometry": {
    "type": "Polygon",
    "coordinates": [
     [
      [
       79.26607,
       9.05873
      ],
      [
       79.26608,
       9.0648
      ],
      [
       79.26038,
       9.07042
      ],
      [
       79.25258,
       9.06624
      ],
      [
       79.24432,
       9.06529
      ],
      [
       79.24782,
       9.05873
      ],
      [
       79.24512,
       9.05262
      ],
      [
       79.25134,
       9.04817
      ],
      [
       79.25861,
       9.05139
      ],
      [
       79.2642,
       9.05374
      ],
      [
       79.26607,
       9.05873
      ]
     ]
    ]
   },
   "properties": {
    "id": "gulf-of-mannar-p15",
    "area_ha": 349.3,
    "quality": 0.46,
    "confidence": 0.834,
    "habitat_class": "seagrass",
    "name": "Appa Island Reef",
    "protected": false,
    "perimeter_km": null,
    "bbox": null,
    "extra": {},
    "centroid_lat": 9.05873,
    "centroid_lon": 79.25563,
    "criticality_rank": 13,
    "criticality_score": 0.02210780279798072,
    "delta_connectivity": 1.7882864119505974e-05,
    "delta_pct": 2.210780279798072,
    "degree": 0,
    "is_cut_vertex": false,
    "component_count_after": 8,
    "rank_by_area": 10,
    "criticality_level": "low"
   }
  },
  {
   "type": "Feature",
   "id": "gulf-of-mannar-p16",
   "geometry": {
    "type": "Polygon",
    "coordinates": [
     [
      [
       79.31116,
       9.09543
      ],
      [
       79.30391,
       9.10096
      ],
      [
       79.29895,
       9.10664
      ],
      [
       79.28956,
       9.10732
      ],
      [
       79.28712,
       9.09966
      ],
      [
       79.27872,
       9.09543
      ],
      [
       79.28364,
       9.08918
      ],
      [
       79.29081,
       9.08659
      ],
      [
       79.29708,
       9.08882
      ],
      [
       79.30267,
       9.09062
      ],
      [
       79.31116,
       9.09543
      ]
     ]
    ]
   },
   "properties": {
    "id": "gulf-of-mannar-p16",
    "area_ha": 459.2,
    "quality": 0.405,
    "confidence": 0.971,
    "habitat_class": "coral",
    "name": "Talairi Seagrass Bed",
    "protected": true,
    "perimeter_km": null,
    "bbox": null,
    "extra": {},
    "centroid_lat": 9.09543,
    "centroid_lon": 79.2944,
    "criticality_rank": 10,
    "criticality_score": 0.05049721509936534,
    "delta_connectivity": 4.084688307957483e-05,
    "delta_pct": 5.049721509936535,
    "degree": 1,
    "is_cut_vertex": false,
    "component_count_after": 9,
    "rank_by_area": 8,
    "criticality_level": "medium"
   }
  },
  {
   "type": "Feature",
   "id": "gulf-of-mannar-p17",
   "geometry": {
    "type": "Polygon",
    "coordinates": [
     [
      [
       79.30947,
       9.08462
      ],
      [
       79.30725,
       9.08754
      ],
      [
       79.30594,
       9.09156
      ],
      [
       79.30093,
       9.09111
      ],
      [
       79.29681,
       9.09033
      ],
      [
       79.29491,
       9.0874
      ],
      [
       79.29214,
       9.08462
      ],
      [
       79.2955,
       9.08211
      ],
      [
       79.29795,
       9.08049
      ],
      [
       79.30093,
       9.08043
      ],
      [
       79.30517,
       9.07874
      ],
      [
       79.30523,
       9.08263
      ],
      [
       79.30947,
       9.08462
      ]
     ]
    ]
   },
   "properties": {
    "id": "gulf-of-mannar-p17",
    "area_ha": 147.7,
    "quality": 0.602,
    "confidence": 0.866,
    "habitat_class": "coral",
    "name": "Uppatanni Shoal",
    "protected": true,
    "perimeter_km": null,
    "bbox": null,
    "extra": {},
    "centroid_lat": 9.08462,
    "centroid_lon": 79.30093,
    "criticality_rank": 15,
    "criticality_score": 0.016242244490801992,
    "delta_connectivity": 1.3138250502729124e-05,
    "delta_pct": 1.6242244490801991,
    "degree": 1,
    "is_cut_vertex": false,
    "component_count_after": 9,
    "rank_by_area": 15,
    "criticality_level": "low"
   }
  }
 ]
}